{"fetched_at":"2026-07-17T17:38:15.876Z","source":"https://celestrak.org/NORAD/elements/gp.php?NAME=GLOBAL&FORMAT=JSON","constellation":"blacksky-gen2","records":[{"OBJECT_NAME":"GLOBAL-2","OBJECT_ID":"2018-099BG","EPOCH":"2026-07-17T01:15:14.981472","CLASSIFICATION_TYPE":"U","MEAN_MOTION":15.08832086,"ECCENTRICITY":0.00072984,"INCLINATION":97.3547,"RA_OF_ASC_NODE":233.3239,"ARG_OF_PERICENTER":62.0863,"MEAN_ANOMALY":298.1105,"EPHEMERIS_TYPE":0,"NORAD_CAT_ID":43812,"ELEMENT_SET_NO":999,"REV_AT_EPOCH":41641,"BSTAR":0.0001148724,"MEAN_MOTION_DOT":0.00001748,"MEAN_MOTION_DDOT":0},{"OBJECT_NAME":"GLOBAL-4","OBJECT_ID":"2019-054E","EPOCH":"2026-07-16T19:21:37.515744","CLASSIFICATION_TYPE":"U","MEAN_MOTION":15.67212279,"ECCENTRICITY":0.00056315,"INCLINATION":45.0056,"RA_OF_ASC_NODE":65.1287,"ARG_OF_PERICENTER":206.9473,"MEAN_ANOMALY":153.1134,"EPHEMERIS_TYPE":0,"NORAD_CAT_ID":44499,"ELEMENT_SET_NO":999,"REV_AT_EPOCH":38500,"BSTAR":0.00036570833,"MEAN_MOTION_DOT":0.00040052,"MEAN_MOTION_DDOT":0},{"OBJECT_NAME":"GLOBAL-9","OBJECT_ID":"2021-023G","EPOCH":"2026-07-17T01:59:21.549120","CLASSIFICATION_TYPE":"U","MEAN_MOTION":15.47659392,"ECCENTRICITY":0.00036891,"INCLINATION":44.9813,"RA_OF_ASC_NODE":82.3525,"ARG_OF_PERICENTER":182.4746,"MEAN_ANOMALY":177.6127,"EPHEMERIS_TYPE":0,"NORAD_CAT_ID":47971,"ELEMENT_SET_NO":999,"REV_AT_EPOCH":29957,"BSTAR":0.00025271629,"MEAN_MOTION_DOT":0.00013006,"MEAN_MOTION_DDOT":0},{"OBJECT_NAME":"GLOBAL-14","OBJECT_ID":"2021-106A","EPOCH":"2026-07-17T05:12:02.129184","CLASSIFICATION_TYPE":"U","MEAN_MOTION":15.51894609,"ECCENTRICITY":0.00181105,"INCLINATION":42.0038,"RA_OF_ASC_NODE":112.4286,"ARG_OF_PERICENTER":237.3645,"MEAN_ANOMALY":122.5452,"EPHEMERIS_TYPE":0,"NORAD_CAT_ID":49469,"ELEMENT_SET_NO":999,"REV_AT_EPOCH":26279,"BSTAR":0.00026114346,"MEAN_MOTION_DOT":0.00015885,"MEAN_MOTION_DDOT":0},{"OBJECT_NAME":"GLOBAL-12","OBJECT_ID":"2021-115BA","EPOCH":"2026-07-16T10:55:12.126144","CLASSIFICATION_TYPE":"U","MEAN_MOTION":15.5538131,"ECCENTRICITY":0.0002904,"INCLINATION":53.1939,"RA_OF_ASC_NODE":263.6186,"ARG_OF_PERICENTER":72.6908,"MEAN_ANOMALY":287.4421,"EPHEMERIS_TYPE":0,"NORAD_CAT_ID":49772,"ELEMENT_SET_NO":999,"REV_AT_EPOCH":26045,"BSTAR":0.00028962,"MEAN_MOTION_DOT":0.0001961,"MEAN_MOTION_DDOT":0},{"OBJECT_NAME":"GLOBAL-13","OBJECT_ID":"2021-115BB","EPOCH":"2026-07-17T05:35:11.328000","CLASSIFICATION_TYPE":"U","MEAN_MOTION":15.47158506,"ECCENTRICITY":0.0000393,"INCLINATION":53.1964,"RA_OF_ASC_NODE":271.635,"ARG_OF_PERICENTER":152.0202,"MEAN_ANOMALY":208.0828,"EPHEMERIS_TYPE":0,"NORAD_CAT_ID":49773,"ELEMENT_SET_NO":999,"REV_AT_EPOCH":26041,"BSTAR":0.00022059285,"MEAN_MOTION_DOT":0.0001096,"MEAN_MOTION_DDOT":0},{"OBJECT_NAME":"GLOBAL-17","OBJECT_ID":"2021-120A","EPOCH":"2026-07-17T05:58:45.175872","CLASSIFICATION_TYPE":"U","MEAN_MOTION":15.53782157,"ECCENTRICITY":0.00134176,"INCLINATION":41.9928,"RA_OF_ASC_NODE":229.9463,"ARG_OF_PERICENTER":106.8895,"MEAN_ANOMALY":253.3422,"EPHEMERIS_TYPE":0,"NORAD_CAT_ID":49949,"ELEMENT_SET_NO":999,"REV_AT_EPOCH":25957,"BSTAR":0.00022858931,"MEAN_MOTION_DOT":0.00014814,"MEAN_MOTION_DDOT":0},{"OBJECT_NAME":"GLOBAL-16","OBJECT_ID":"2021-120B","EPOCH":"2026-07-17T05:45:51.163200","CLASSIFICATION_TYPE":"U","MEAN_MOTION":15.51539849,"ECCENTRICITY":0.00114371,"INCLINATION":41.9931,"RA_OF_ASC_NODE":234.314,"ARG_OF_PERICENTER":96.3271,"MEAN_ANOMALY":263.8876,"EPHEMERIS_TYPE":0,"NORAD_CAT_ID":49950,"ELEMENT_SET_NO":999,"REV_AT_EPOCH":25951,"BSTAR":0.00022306972,"MEAN_MOTION_DOT":0.00013288,"MEAN_MOTION_DDOT":0},{"OBJECT_NAME":"GLOBAL-18","OBJECT_ID":"2022-034B","EPOCH":"2026-07-17T04:05:32.801856","CLASSIFICATION_TYPE":"U","MEAN_MOTION":15.47277309,"ECCENTRICITY":0.00045347,"INCLINATION":52.9819,"RA_OF_ASC_NODE":113.2285,"ARG_OF_PERICENTER":30.5312,"MEAN_ANOMALY":329.5957,"EPHEMERIS_TYPE":0,"NORAD_CAT_ID":52196,"ELEMENT_SET_NO":999,"REV_AT_EPOCH":24160,"BSTAR":0.00027580169,"MEAN_MOTION_DOT":0.0001388,"MEAN_MOTION_DDOT":0},{"OBJECT_NAME":"GLOBAL-19","OBJECT_ID":"2023-041B","EPOCH":"2026-07-16T23:06:46.821888","CLASSIFICATION_TYPE":"U","MEAN_MOTION":15.38711918,"ECCENTRICITY":0.00098948,"INCLINATION":42.002,"RA_OF_ASC_NODE":28.1568,"ARG_OF_PERICENTER":229.4763,"MEAN_ANOMALY":130.5216,"EPHEMERIS_TYPE":0,"NORAD_CAT_ID":55982,"ELEMENT_SET_NO":999,"REV_AT_EPOCH":18651,"BSTAR":0.00021046389,"MEAN_MOTION_DOT":0.00007985,"MEAN_MOTION_DDOT":0},{"OBJECT_NAME":"GLOBAL-5","OBJECT_ID":"2023-041C","EPOCH":"2026-07-16T22:20:20.559264","CLASSIFICATION_TYPE":"U","MEAN_MOTION":15.38724798,"ECCENTRICITY":0.00087736,"INCLINATION":42.0015,"RA_OF_ASC_NODE":27.8708,"ARG_OF_PERICENTER":224.7013,"MEAN_ANOMALY":135.312,"EPHEMERIS_TYPE":0,"NORAD_CAT_ID":55983,"ELEMENT_SET_NO":999,"REV_AT_EPOCH":18651,"BSTAR":0.00022324862,"MEAN_MOTION_DOT":0.00008488,"MEAN_MOTION_DDOT":0}]}
